GLOBALSTAR M035         
1 25851U 99037A   24256.67306611 -.00000088  00000+0 -92446-3 0  9993
2 25851  51.9973 313.8505 0013594 251.4850 251.6610 11.04532729 65599
GLOBALSTAR M032         
1 25852U 99037B   24256.89261743 -.00000021  00000+0  14688-2 0  9991
2 25852  51.9942 157.6845 0011126  59.0572 301.1320 11.19063110103747
GLOBALSTAR M051         
1 25853U 99037C   24256.72646089 -.00000022  00000+0  12218-2 0  9992
2 25853  51.9836 350.2308 0001812  89.6265 270.4754 11.42200071100688
GLOBALSTAR M030         
1 25854U 99037D   24256.91272427 -.00000067  00000+0  16424-3 0  9998
2 25854  51.9867 173.5168 0003469 275.9227  84.1194 11.55100514118009
GLOBALSTAR M048         
1 25872U 99041A   24256.61961075 -.00000045  00000+0  68538-3 0  9993
2 25872  51.9354 274.7930 0013302  63.9610  91.4205 11.33849151 93491
GLOBALSTAR M026         
1 25873U 99041B   24256.91619340 -.00000130  00000+0 -24193-2 0  9996
2 25873  52.0013  74.1745 0001866 116.0040  33.9830 11.06833678117782
GLOBALSTAR M043         
1 25874U 99041C   24256.88796546 -.00000118  00000+0 -14902-2 0  9990
2 25874  51.9444  10.7438 0012961 195.3822 320.4820 11.25686155 91646
GLOBALSTAR M028         
1 25875U 99041D   24256.57460624  .00000046  00000+0  94234-3 0  9997
2 25875  51.9631 300.8483 0063578 188.3168 171.6643 12.50564805155447
